$$SOE
2461288.500000000, A.D. 2026-Sep-05 00:00:00.0000, -2.739296591912137E+08, 9.058942212403610E+07, 5.245078832182653E+07,
2461295.500000000, A.D. 2026-Sep-12 00:00:00.0000, -2.837112858102823E+08, 8.108810350453293E+07, 4.741236504522980E+07,
2461302.500000000, A.D. 2026-Sep-19 00:00:00.0000, -2.929770429539836E+08, 7.143920518394071E+07, 4.228760457678725E+07,
2461309.500000000, A.D. 2026-Sep-26 00:00:00.0000, -3.017391934382016E+08, 6.166738868755710E+07, 3.709003992271157E+07,
2461316.500000000, A.D. 2026-Oct-03 00:00:00.0000, -3.100106796305131E+08, 5.179519033264743E+07, 3.183205930659206E+07,
2461323.500000000, A.D. 2026-Oct-10 00:00:00.0000, -3.178048976886055E+08, 4.184316259858502E+07, 2.652498006463475E+07,
2461330.500000000, A.D. 2026-Oct-17 00:00:00.0000, -3.251355105710101E+08, 3.183001725225856E+07, 2.117912399930291E+07,
2461337.500000000, A.D. 2026-Oct-24 00:00:00.0000, -3.320162947720869E+08, 2.177276649790066E+07, 1.580389211482016E+07,
2461344.500000000, A.D. 2026-Oct-31 00:00:00.0000, -3.384610159843141E+08, 1.168685946105696E+07, 1.040783723986913E+07,
2461351.500000000, A.D. 2026-Nov-07 00:00:00.0000, -3.444833290672548E+08, 1.586312312275911E+06, 4.998733501157436E+06,
2461358.500000000, A.D. 2026-Nov-14 00:00:00.0000, -3.500966982958476E+08, -8.516168190293245E+06, -4.163579454285218E+05,
2461365.500000000, A.D. 2026-Nov-21 00:00:00.0000, -3.553143363328795E+08, -1.860906766694631E+07, -5.831027074719214E+06,
2461372.500000000, A.D. 2026-Nov-28 00:00:00.0000, -3.601491600009513E+08, -2.868195683886350E+07, -1.123945736208048E+07,
2461379.500000000, A.D. 2026-Dec-05 00:00:00.0000, -3.646137567206673E+08, -3.872539463206866E+07, -1.663637276355199E+07,
2461386.500000000, A.D. 2026-Dec-12 00:00:00.0000, -3.687203592979034E+08, -4.873083833177197E+07, -2.201698897526266E+07,
2461393.500000000, A.D. 2026-Dec-19 00:00:00.0000, -3.724808291209377E+08, -5.869056043975931E+07, -2.737696863408570E+07,
2461400.500000000, A.D. 2026-Dec-26 00:00:00.0000, -3.759066463768535E+08, -6.859757268500972E+07, -3.271238030742454E+07,
2461407.500000000, A.D. 2027-Jan-02 00:00:00.0000, -3.790089057296748E+08, -7.844555691331667E+07, -3.801966107645875E+07,
2461414.500000000, A.D. 2027-Jan-09 00:00:00.0000, -3.817983162732970E+08, -8.822880234984526E+07, -4.329558247227181E+07,
2461421.500000000, A.D. 2027-Jan-16 00:00:00.0000, -3.842852048348763E+08, -9.794214873887749E+07, -4.853721951482566E+07,
2461428.500000000, A.D. 2027-Jan-23 00:00:00.0000, -3.864795218477915E+08, -1.075809349245437E+08, -5.374192261391231E+07,
2461435.500000000, A.D. 2027-Jan-30 00:00:00.0000, -3.883908490007994E+08, -1.171409524634897E+08, -5.890729211357966E+07,
2461442.500000000, A.D. 2027-Feb-06 00:00:00.0000, -3.900284077404200E+08, -1.266184034975072E+08, -6.403115526297469E+07,
2461449.500000000, A.D. 2027-Feb-13 00:00:00.0000, -3.914010686783089E+08, -1.360098612640396E+08, -6.911154525682321E+07,
2461456.500000000, A.D. 2027-Feb-20 00:00:00.0000, -3.925173639358472E+08, -1.453122336656168E+08, -7.414668199393713E+07,
2461463.500000000, A.D. 2027-Feb-27 00:00:00.0000, -3.933855007660513E+08, -1.545227327732307E+08, -7.913495476211964E+07,
2461470.500000000, A.D. 2027-Mar-06 00:00:00.0000, -3.940133732257962E+08, -1.636388480283998E+08, -8.407490680300704E+07,
2461477.500000000, A.D. 2027-Mar-13 00:00:00.0000, -3.944085733305225E+08, -1.726583208058080E+08, -8.896522129007609E+07,
2461484.500000000, A.D. 2027-Mar-20 00:00:00.0000, -3.945784026859477E+08, -1.815791209082243E+08, -9.380470854481426E+07,
2461491.500000000, A.D. 2027-Mar-27 00:00:00.0000, -3.945298842889333E+08, -1.903994253047603E+08, -9.859229442752592E+07,
2461498.500000000, A.D. 2027-Apr-03 00:00:00.0000, -3.942697742128879E+08, -1.991175989447126E+08, -1.033270098100531E+08,
2461505.500000000, A.D. 2027-Apr-10 00:00:00.0000, -3.938045730537838E+08, -2.077321774288962E+08, -1.080079810293553E+08,
2461512.500000000, A.D. 2027-Apr-17 00:00:00.0000, -3.931405370674570E+08, -2.162418513770490E+08, -1.126344212300392E+08,
2461519.500000000, A.D. 2027-Apr-24 00:00:00.0000, -3.922836888846615E+08, -2.246454523956456E+08, -1.172056225222499E+08,
2461526.500000000, A.D. 2027-May-01 00:00:00.0000, -3.912398274808133E+08, -2.329419404766598E+08, -1.217209489027720E+08,
2461533.500000000, A.D. 2027-May-08 00:00:00.0000, -3.900145370784612E+08, -2.411303919515505E+08, -1.261798298368399E+08,
2461540.500000000, A.D. 2027-May-15 00:00:00.0000, -3.886131964716486E+08, -2.492099869324844E+08, -1.305817542229298E+08,
2461547.500000000, A.D. 2027-May-22 00:00:00.0000, -3.870409903340877E+08, -2.571799987297710E+08, -1.349262647530115E+08,
2461554.500000000, A.D. 2027-May-29 00:00:00.0000, -3.853029191588113E+08, -2.650397866215626E+08, -1.392129530463586E+08,
2461561.500000000, A.D. 2027-Jun-05 00:00:00.0000, -3.834038069514281E+08, -2.727887887597786E+08, -1.434414553370623E+08,
2461568.500000000, A.D. 2027-Jun-12 00:00:00.0000, -3.813483086926010E+08, -2.804265147037646E+08, -1.476114484543719E+08,
2461575.500000000, A.D. 2027-Jun-19 00:00:00.0000, -3.791409179100537E+08, -2.879525384481166E+08, -1.517226461043067E+08,
2461582.500000000, A.D. 2027-Jun-26 00:00:00.0000, -3.767859740916139E+08, -2.953664921448609E+08, -1.557747954658745E+08,
2461589.500000000, A.D. 2027-Jul-03 00:00:00.0000, -3.742876698195137E+08, -3.026680604567521E+08, -1.597676740831897E+08,
2461596.500000000, A.D. 2027-Jul-10 00:00:00.0000, -3.716500576022403E+08, -3.098569754832636E+08, -1.637010870288973E+08,
2461603.500000000, A.D. 2027-Jul-17 00:00:00.0000, -3.688770563809887E+08, -3.169330122531760E+08, -1.675748643206585E+08,
2461610.500000000, A.D. 2027-Jul-24 00:00:00.0000, -3.659724575677265E+08, -3.238959848060148E+08, -1.713888585877415E+08,
2461617.500000000, A.D. 2027-Jul-31 00:00:00.0000, -3.629399302168424E+08, -3.307457425902230E+08, -1.751429429859155E+08,
2461624.500000000, A.D. 2027-Aug-07 00:00:00.0000, -3.597830255442500E+08, -3.374821659932034E+08, -1.788370092297046E+08,
2461631.500000000, A.D. 2027-Aug-14 00:00:00.0000, -3.565051831076711E+08, -3.441051612266430E+08, -1.824709655349606E+08,
2461638.500000000, A.D. 2027-Aug-21 00:00:00.0000, -3.531097380423312E+08, -3.506146579048589E+08, -1.860447347887296E+08,
2461645.500000000, A.D. 2027-Aug-28 00:00:00.0000, -3.495999259339181E+08, -3.570106080892377E+08, -1.895582531500319E+08,
2461652.500000000, A.D. 2027-Sep-04 00:00:00.0000, -3.459788865225452E+08, -3.632929842742690E+08, -1.930114687569910E+08,
2461659.500000000, A.D. 2027-Sep-11 00:00:00.0000, -3.422496676446157E+08, -3.694617769560127E+08, -1.964043404554003E+08,
2461666.500000000, A.D. 2027-Sep-18 00:00:00.0000, -3.384152292903103E+08, -3.755169924146822E+08, -1.997368366041592E+08,
2461673.500000000, A.D. 2027-Sep-25 00:00:00.0000, -3.344784475583649E+08, -3.814586507722148E+08, -2.030089339760605E+08,
2461680.500000000, A.D. 2027-Oct-02 00:00:00.0000, -3.304421184432853E+08, -3.872867842818724E+08, -2.062206167505507E+08,
2461687.500000000, A.D. 2027-Oct-09 00:00:00.0000, -3.263089614421773E+08, -3.930014358401530E+08, -2.093718755934416E+08,
2461694.500000000, A.D. 2027-Oct-16 00:00:00.0000, -3.220816229269376E+08, -3.986026577629082E+08, -2.124627068268930E+08,
2461701.500000000, A.D. 2027-Oct-23 00:00:00.0000, -3.177626790301715E+08, -4.040905108197692E+08, -2.154931117076568E+08,
2461708.500000000, A.D. 2027-Oct-30 00:00:00.0000, -3.133546376779823E+08, -4.094650629062815E+08, -2.184630957925078E+08,
2461715.500000000, A.D. 2027-Nov-06 00:00:00.0000, -3.088599409406664E+08, -4.147263862163268E+08, -2.213726681870386E+08,
2461722.500000000, A.D. 2027-Nov-13 00:00:00.0000, -3.042809696939976E+08, -4.198745549826502E+08, -2.242218406610042E+08,
2461729.500000000, A.D. 2027-Nov-20 00:00:00.0000, -2.996200476964955E+08, -4.249096459640696E+08, -2.270106270713444E+08,
2461736.500000000, A.D. 2027-Nov-27 00:00:00.0000, -2.948794434725922E+08, -4.298317387080935E+08, -2.297390429956786E+08,
2461743.500000000, A.D. 2027-Dec-04 00:00:00.0000, -2.900613720322412E+08, -4.346409146682036E+08, -2.324071053124447E+08,
2461750.500000000, A.D. 2027-Dec-11 00:00:00.0000, -2.851679969837220E+08, -4.393372561333510E+08, -2.350148317523335E+08,
2461757.500000000, A.D. 2027-Dec-18 00:00:00.0000, -2.802014327702454E+08, -4.439208453030235E+08, -2.375622404705698E+08,
2461764.500000000, A.D. 2027-Dec-25 00:00:00.0000, -2.751637468836055E+08, -4.483917635049875E+08, -2.400493496511775E+08,
2461771.500000000, A.D. 2028-Jan-01 00:00:00.0000, -2.700569620185047E+08, -4.527500905366088E+08, -2.424761771432238E+08,
$$EOE